#dP2023  5  4  0  0  0.00000000      96 __u+U IGS14 FIT  IAC
## 2260 345600.00000000   900.00000000 60068 0.0000000000000
+  119   C06C07C08C09C10C11C12C13C14C16C19C20C21C22C23C24C25
+        C26C27C28C29C30C32C33C34C35C36C37C38C39C40C41C42C43
+        C44C45C46E02E03E04E05E07E08E09E10E11E12E13E14E15E18
+        E19E21E24E25E26E27E30E31E33E34E36G01G02G03G04G05G06
+        G07G08G09G10G11G12G13G14G15G16G17G18G19G20G21G22G23
+        G24G25G26G27G28G29G30G31G32J02J03J04R01R02R03R04R05
+        R07R08R09R11R12R13R14R15R16R17R18R19R20R21R22R24R25
++         7  8  7  7  7  7  7  7  7  7  6  6  6  8  6  6  6
++         6  7  6  5  6  6  7  7  8  6  6  6  6  6  7  7  7
++         7  6  6  6  6  6  7  5  7  8  6  7  8  5  6  8  5
++         6  5  6  6  6  5  6  5  6  7  7  6  6  6  5  4  5
++         5  6  5  7  4  4  7  6  5  5  6  8  5  5  6  9  5
++         6  5  7  6  5  6  7  5  7  0  9 10  7  7  7  7  8
++         8  7  7  7  7  8  7  7  7  7  8  9  8  7  7  9 10
%c M  cc GPS ccc cccc cccc cccc cccc ccccc ccccc ccccc ccccc
%c cc cc ccc ccc cccc cccc cccc cccc ccccc ccccc ccccc ccccc
%f  1.2500000  1.025000000  0.00000000000  0.000000000000000
%f  0.0000000  0.000000000  0.00000000000  0.000000000000000
%i    0    0    0    0      0      0      0      0         0
%i    0    0    0    0      0      0      0      0         0
/* INFORMATION & ANALYSIS CENTER (IAC)            FINAL DATA
/* S/V CLOCKS ARE ALIGNED TO GNSS TIME                      
/* G:C1WC2W R:C1PC2P E:C1XC5X C:C2IC6I J:C1CC2S             
/* PCV:IGS20_2247 OL/AL:FES2004  NONE     YN ORB:CoN CLK:CoN
*  2023 05 04 20 15  0.00000000
PC06  -9836.088439  23294.280945  33753.116875   -194.344867
PC07 -15913.582441  38655.393545  -6190.340943     30.258241
PC08    622.036004  34028.527301 -24774.276795    492.509782
PC09   1337.053393  25091.755023  34337.887047    691.749200
PC10  -9430.244662  39200.819580 -12918.045290    -49.864988
PC11 -19441.576639 -10313.163896  17228.310089    601.468239
PC12    301.023530 -15465.240981  23256.610158    616.251899
PC13   5902.548963  37150.906271 -18636.845932    267.408524
PC14 -10148.209837 -13892.881768 -21936.451241    213.441977
PC16 -13617.108506  21933.756563  33520.967657     89.033486
PC19  15388.745344   3985.048026  22963.713770   -906.809731
PC20   4411.777277  20468.834340  18483.051066    587.814481
PC21  10173.674732 -25853.835010  -2409.833223   -912.685156
PC22  18071.551101 -15623.525932  14401.979880   -503.999891
PC23 -16579.442729   4065.086432  22080.427938   -920.401143
PC24 -12382.523800 -24432.533509  -5409.713338    -92.924304
PC25 -21071.072634 -13195.250028  12685.245241    119.914550
PC26   1451.205261 -20676.069425 -18715.119587   -115.638901
PC27  -9907.534333  15451.751156 -21039.889395    135.354000
PC28 -24809.264877   8556.026880  -9491.202381     99.981237
PC29  26058.662162   3523.308426  -9359.570942    115.978695
PC30  10842.767587  13939.848129 -21624.051101     -0.017118
PC32  -9988.176258  25960.303689   2392.337560   -567.552152
PC33 -15404.966401  -3941.666321 -22924.348261   -878.265093
PC34 -12189.437534 -13514.367820  21131.390589    163.469547
PC35  24938.689938  -9029.303106   8729.508991    633.811218
PC36  20677.602638  14300.971093 -12082.915692   -461.238391
PC37  -3012.062391  19875.911362  19359.297397   -785.287249
PC38  -6332.280920  29629.064362 -29235.185163     76.170712
PC39 -18972.122262  20922.612122  31294.748395     -2.807214
PC40 -22564.019370  35438.535351  -4897.931969    -22.242119
PC41 -18104.475339  15167.414480 -14816.625233   -935.624819
PC42  -3454.052829 -21341.470500 -17579.901359   -706.635390
PC43 -25686.915220  -4159.277123  10034.354208     19.846603
PC44   9589.514868 -15890.977860  20831.494933     96.431401
PC45  16217.371160  -4478.860081 -22261.245054    -93.427125
PC46  13434.126617  24119.732042   3927.451432    -51.680580
PE02 -15251.223004 -14047.834651  21123.837317     36.219082
PE03 -21154.179340  -3252.593235 -20448.834489   -675.724695
PE04  26205.897171 -12539.703818   5677.769225   -115.066719
PE05  -3495.140343 -17556.262825 -23563.458332    -70.539153
PE07 -16142.335886  21350.549054  12664.117087    -42.599256
PE08 -26199.696027  12444.806617  -5935.266609    -77.881077
PE09  16289.758151 -21274.798467 -12551.066884     -3.343906
PE10  16599.641987  -8318.879443  23042.151254   -531.312732
PE11   6121.726207 -14892.321505  24822.613993   1821.555010
PE12  23638.804770  -1074.929478  17791.058692   -525.154667
PE13  -6882.281211  14447.782606 -24903.006545    -19.047616
PE14  -7465.049130 -13884.364108  18812.985672    215.831175
PE15 -23781.603675    824.200207 -17596.839913    -19.343125
PE18   1052.632710  21389.358674 -23359.757960     25.896731
PE19  19260.023355   5486.924890  21810.253839  -2610.671469
PE21   6593.599334  27926.017222  -7269.419429   -527.203382
PE24   7004.692938 -26068.242155 -12189.312031    -80.677467
PE25  -6382.504192 -28058.629004   6950.863749   -604.501431
PE26  14472.805735  19525.334594 -16900.838028     94.578984
PE27  -6416.031916  26479.283677  11558.739108    -41.352033
PE30 -15723.317020   8760.235024  23484.578273   -146.343407
PE31  15502.254241  -9463.066370 -23370.377225   -523.026221
PE33  26511.425097  13183.879424    -42.244283   -444.921580
PE34 -26575.162108 -13036.445488   -126.220988    -43.684413
PE36 -13807.674170 -19430.269131  17536.974543    -51.211878
PG01  22091.157017  14896.536550  -2758.490729    187.867134
PG02 -13574.243692   9236.754534 -20364.920713   -599.519676
PG03  12514.711759  14567.203349  18271.853243   -312.493635
PG04  18377.674770   4690.717902  18651.289557     33.128458
PG05  -5458.232410 -25349.903824  -5619.057795   -125.931366
PG06  10671.998090 -10553.700769  21983.612393    588.091393
PG07  23986.986463   4892.193427 -10433.370971    186.153980
PG08   7826.577730  13142.790896 -21777.730177   -120.887338
PG09  23385.852726  -5130.691705  11472.949558   -166.020949
PG10 -11259.713720  16495.167695 -17172.089788    -35.565356
PG11  -4214.501316 -18121.390486  18977.689689   -185.115878
PG12 -10501.466014 -17710.721628  16544.796967   -371.990105
PG13   1060.516283 -16216.832523 -21143.637673    515.266084
PG14  13437.616000 -13462.153421 -18468.326791     45.948825
PG15 -10046.841213 -12527.519293 -21613.194704     36.564322
PG16    288.989440  26156.126448  -3139.423224   -503.765624
PG17  22495.574770 -13981.299421   3066.814480    713.522530
PG18 -22481.595264  -1966.681994 -14127.785270   -252.484179
PG19  17691.632193 -16248.226328  10771.524371    312.486271
PG20  -1509.129912 -26229.257124   4607.106166    435.381455
PG21  18703.294854  16190.895835 -10185.023934    153.980016
PG22 -14260.561065  17806.215452  13913.893762    475.718180
PG23 -14671.008117   3755.927006 -21802.090270     21.618596
PG24 -20821.950478 -15293.935199  -7398.986836   -176.608250
PG25 -14976.452931  -5881.313030  20861.754042    440.461607
PG26  -5399.838661  23787.927556   9967.651062    241.175187
PG27  -4181.835047  17970.522920 -19197.231778     44.523343
PG28 -12372.672651  10227.363559  21135.399588     74.154990
PG29 -22503.291805    582.179434  14110.650876   -598.173704
PG30  18277.834172  -5304.250192 -18518.553264   -518.995088
PG31  -3298.845825  15419.582313  21147.840343   -215.415763
PG32 -20241.379671  16373.630530   4874.262074   -468.387520
PJ02      0.000000      0.000000      0.000000 999999.999999
PJ03 -30971.280156  16089.652845 -19017.011337      3.485399
PJ04 -23219.427728  33089.550341  -7080.871584     94.381177
PR01  -8549.026093  -7000.142748 -22983.014513     56.869672
PR02 -16735.838391  10113.538793 -16293.790244    -22.883103
PR03 -14812.792498  20729.917562   -189.498996     77.220671
PR04  -5030.785556  19497.049681  15688.264018    185.906197
PR05   7613.615334   7807.610056  23075.316724    112.022668
PR07  14605.472518 -20936.148088   -485.238558     55.211603
PR08   4800.036728 -19511.617953 -15666.531544    -70.640575
PR09  12974.673265   1845.038522 -21881.292646    118.354258
PR11  -6761.199428 -23177.899815  -8196.338657    -49.011591
PR12 -14223.567419 -18236.945781  10800.192720     26.990470
PR13 -13287.254135  -3948.173989  21398.243362    -34.676587
PR14  -3819.996635  14951.635421  20327.615938     24.639075
PR15   7178.531127  23449.743116   7047.691005     89.453729
PR16  14238.359746  18407.610344 -10476.972932     14.226973
PR17 -14160.773697   7642.037399 -19802.323931    627.053825
PR18   3664.587773  10734.087859 -22844.691114     79.865322
PR19  18247.274206   9340.482894 -15187.705801   -231.415689
PR20  25036.573364   1353.550017   4822.904382    -92.305040
PR21  12657.480051  -8005.259811  20636.069414     -4.970997
PR22  -4172.715064 -11309.226236  22499.474737     81.780330
PR24 -24936.404443   -104.557592  -5383.901915    167.506837
PR25  14651.688105  -7188.662901  19599.019087     60.194223
EOF
